CUTE-1 (CO-55)          
1 27844U 03031E   26064.55947722  .00000479  00000+0  22660-3 0  9999
2 27844  98.6779  74.4095 0010550 123.2151 237.0041 14.24262275176925
CUBESAT XI-IV (CO-57)   
1 27848U 03031J   26064.49628679  .00000394  00000+0  19211-3 0  9997
2 27848  98.6809  74.1430 0010209 139.8999 220.2934 14.23557892176620
CUBESAT XI-V            
1 28895U 05043F   26064.36633822  .00002974  00000+0  47811-3 0  9990
2 28895  98.2821 217.9088 0014469 171.1666 188.9798 14.72297036 86477
CUTE-1.7+APD II (CO-65) 
1 32785U 08021C   26064.73317218  .00008959  00000+0  58081-3 0  9991
2 32785  97.8206  44.1338 0010170  32.0987 328.0858 15.08305588969595
CANX-2                  
1 32790U 08021H   26064.71732122  .00006465  00000+0  46245-3 0  9999
2 32790  97.8563  42.6024 0011982  42.6046 317.6107 15.04745376969249
SEEDS II (CO-66)        
1 32791U 08021J   26064.53628993  .00025054  00000+0  89406-3 0  9991
2 32791  97.7512  57.7941 0002167  12.5700 347.5593 15.28864440971431
SWISSCUBE               
1 35932U 09051B   26064.71396288  .00001809  00000+0  36858-3 0  9999
2 35932  98.4101 330.7863 0006806 164.5501 195.5909 14.62247075874037
BEESAT-1                
1 35933U 09051C   26064.67072876  .00001533  00000+0  31878-3 0  9990
2 35933  98.4032 330.5905 0005030 175.5274 184.5972 14.61522598874069
ITUPSAT1                
1 35935U 09051E   26064.70852493  .00001387  00000+0  29735-3 0  9993
2 35935  98.4119 329.9276 0006991 190.8794 169.2255 14.60258403873630
TISAT 1                 
1 36799U 10035E   26064.04044411  .00027432  00000+0  10243-2 0  9998
2 36799  98.0650   1.7537 0000542 169.4760 190.6489 15.27357031851781
AEROCUBE 4.5A           
1 38767U 12048K   26064.30474714  .00100707  00000+0  11277-2 0  9998
2 38767  64.6385  35.3155 0041501 213.3687 146.4843 15.61080860356300
STRAND-1                
1 39090U 13009E   26064.45647571  .00000530  00000+0  19271-3 0  9991
2 39090  98.3882 247.2534 0008749 174.1071 186.0220 14.37090623682164
BRITE-AUSTRIA           
1 39091U 13009F   26064.49497789  .00000347  00000+0  13268-3 0  9996
2 39091  98.3951 246.5075 0010106 183.5653 176.5463 14.36493326682163
NEE-01 PEGASO           
1 39151U 13018B   26064.61215010  .00005677  00000+0  55010-3 0  9994
2 39151  98.1048 205.4803 0013675 141.5828 218.6367 14.93056867695242
POPACS 2                
1 39269U 13055E   26064.54106088  .00030408  00000+0  53115-3 0  9995
2 39269  80.9885 262.5578 0431489 166.0822 195.2751 14.87548824647781
POPACS 3                
1 39270U 13055F   26064.75759894  .00018190  00000+0  43816-3 0  9990
2 39270  81.0058 341.1670 0561003  24.6518 338.0405 14.53821250623519
ZACUBE-1 (TSHEPISOSAT)  
1 39417U 13066B   26064.46161782  .00006460  00000+0  51118-3 0  9997
2 39417  97.8184  26.2647 0041905 234.2081 125.5244 15.00273125665173
